0 TRANSIT 16 DEB
1 38530U 67048H   13282.38948260  .00007244  00000-0  97092-2 0  4542
2 38530 089.6920 153.2866 0008699 231.6851 190.3693 13.59904347125323
0 TRANSIT 16 DEB
1 38530U 67048H   13283.41836553  .00006756  00000-0  90534-2 0  4550
2 38530 089.6926 153.2543 0008404 226.4352 189.6706 13.59915999125469
0 TRANSIT 16 DEB
1 38530U 67048H   13286.08714965  .00006129  00000-0  82094-2 0  4576
2 38530 089.6940 153.1703 0007778 211.3653 302.6002 13.59946495125834
0 TRANSIT 16 DEB
1 38530U 67048H   13287.11938587  .00006113  00000-0  81864-2 0  4587
2 38530 089.6943 153.1378 0007629 205.4177 319.1659 13.59957725125979
0 TRANSIT 16 DEB
1 38530U 67048H   13288.14167981  .00008455  00000-0  11322-1 0  4596
2 38530 089.6944 153.1056 0007504 199.3162 287.2854 13.59974268126109
0 TRANSIT 16 DEB
1 38530U 67048H   13289.38038850  .00007724  00000-0  10340-1 0  4604
2 38530 089.6945 153.0669 0007411 191.6722 235.9314 13.59989988126277
0 TRANSIT 16 DEB
1 38530U 67048H   13290.62845547  .00007602  00000-0  10174-1 0  4613
2 38530 089.6945 153.0277 0007366 183.9288 230.5347 13.60007397126445
0 TRANSIT 16 DEB
1 38530U 67048H   13291.89437809  .00006690  00000-0  89498-2 0  4624
2 38530 089.6946 152.9883 0007401 176.4450 312.3315 13.60024133126615
0 TRANSIT 16 DEB
1 38530U 67048H   13293.07676215  .00007034  00000-0  94079-2 0  4637
2 38530 089.6947 152.9512 0007466 169.4353 344.9582 13.60039846126782
0 TRANSIT 16 DEB
1 38530U 67048H   13294.10685924  .00007616  00000-0  10184-1 0  4640
2 38530 089.6950 152.9191 0007562 163.3033 351.5940 13.60054151126928
0 TRANSIT 16 DEB
1 38530U 67048H   13295.56656933  .00007932  00000-0  10604-1 0  4658
2 38530 089.6955 152.8735 0007783 154.8661 302.8197 13.60074039127115
